NORAD_CAT_ID,OBJECT_NAME,OBJECT_TYPE,EPOCH,MEAN_MOTION,ECCENTRICITY,INCLINATION,RA_OF_ASC_NODE,ARG_OF_PERICENTER,MEAN_ANOMALY,BSTAR,MEAN_MOTION_DOT,MEAN_MOTION_DDOT,TLE_LINE0,TLE_LINE1,TLE_LINE2,SEMIMAJOR_AXIS,PERIOD,APOGEE,PERIGEE,DECAYED
49444.0,STARLINK-3126,PAYLOAD,2023-05-28 05:27:53,15.08845994,0.0001251,53.217,92.2023,88.1616,271.9519,0.00015869,2.239e-05,0.0,0 STARLINK-3126,1 49444U 21104AN  23148.22770012  .00002239  00000-0  15869-3 0  9990,2 49444  53.2170  92.2023 0001251  88.1616 271.9519 15.08845994 86531,6917.862,95.437,540.592,538.862,0.0
49444.0,STARLINK-3126,PAYLOAD,2023-05-29 03:43:17,15.08840476,0.0001219,53.2171,88.039,92.4217,267.6914,0.00011127,1.483e-05,0.0,0 STARLINK-3126,1 49444U 21104AN  23149.15506580  .00001483  00000-0  11127-3 0  9993,2 49444  53.2171  88.0390 0001219  92.4217 267.6914 15.08840476 86677,6917.879,95.438,540.587,538.901,0.0
49444.0,STARLINK-3126,PAYLOAD,2023-05-29 19:37:09,15.08838163,0.0001262,53.2169,85.0656,90.8149,269.2988,2.3777e-05,9.1e-07,0.0,0 STARLINK-3126,1 49444U 21104AN  23149.81747031  .00000091  00000-0  23777-4 0  9993,2 49444  53.2169  85.0656 0001262  90.8149 269.2988 15.08838163 85702,6917.886,95.438,540.624,538.878,0.0
49444.0,STARLINK-3126,PAYLOAD,2023-05-30 01:58:41,15.08841533,0.0001231,53.2168,83.876,103.4781,256.6348,-1.5412e-05,-5.33e-06,0.0,0 STARLINK-3126,1 49444U 21104AN  23150.08242826 -.00000533  00000-0 -15412-4 0  9996,2 49444  53.2168  83.8760 0001231 103.4781 256.6348 15.08841533 85741,6917.876,95.437,540.592,538.889,0.0
49444.0,STARLINK-3126,PAYLOAD,2023-05-30 19:27:56,15.08842319,0.0001189,53.2169,80.6054,102.7353,257.3772,5.3887e-05,5.7e-06,0.0,0 STARLINK-3126,1 49444U 21104AN  23150.81106502  .00000570  00000-0  53887-4 0  9994,2 49444  53.2169  80.6054 0001189 102.7353 257.3772 15.08842319 86925,6917.873,95.437,540.561,538.916,0.0
49444.0,STARLINK-3126,PAYLOAD,2023-05-30 22:38:42,15.08844509,0.0001207,53.2169,80.0114,92.1613,267.9518,6.8129e-05,7.97e-06,0.0,0 STARLINK-3126,1 49444U 21104AN  23150.94354355  .00000797  00000-0  68129-4 0  9995,2 49444  53.2169  80.0114 0001207  92.1613 267.9518 15.08844509 85879,6917.867,95.437,540.567,538.897,0.0
49444.0,STARLINK-3126,PAYLOAD,2023-05-31 01:49:28,15.08847185,0.0001202,53.2169,79.4163,97.7512,262.3617,8.9125e-05,1.131e-05,0.0,0 STARLINK-3126,1 49444U 21104AN  23151.07602062  .00001131  00000-0  89125-4 0  9993,2 49444  53.2169  79.4163 0001202  97.7512 262.3617 15.08847185 85893,6917.858,95.437,540.555,538.892,0.0
49444.0,STARLINK-3126,PAYLOAD,2023-05-31 22:29:29,15.08837611,0.0001188,53.2171,75.5505,98.9081,261.2046,5.1348e-05,5.29e-06,0.0,0 STARLINK-3126,1 49444U 21104AN  23151.93714750  .00000529  00000-0  51348-4 0  9992,2 49444  53.2171  75.5505 0001188  98.9081 261.2046 15.08837611 86023,6917.888,95.438,540.575,538.931,0.0
49444.0,STARLINK-3126,PAYLOAD,2023-06-01 01:40:15,15.08843749,0.0001067,53.2176,74.9552,96.9505,263.1608,8.5949e-05,1.08e-05,0.0,0 STARLINK-3126,1 49444U 21104AN  23152.06962273  .00001080  00000-0  85949-4 0  9999,2 49444  53.2176  74.9552 0001067  96.9505 263.1608 15.08843749 87113,6917.869,95.437,540.472,538.996,0.0
49444.0,STARLINK-3126,PAYLOAD,2023-06-01 04:51:01,15.08842602,0.0001208,53.2172,74.3608,95.542,264.571,0.00011395,1.526e-05,0.0,0 STARLINK-3126,1 49444U 21104AN  23152.20210292  .00001526  00000-0  11395-3 0  9990,2 49444  53.2172  74.3608 0001208  95.5420 264.5710 15.08842602 86062,6917.872,95.437,540.573,538.902,0.0
49444.0,STARLINK-3126,PAYLOAD,2023-06-02 01:31:02,15.0883878,9.95e-05,53.217,70.4967,99.757,260.3534,-1.0186e-05,-4.5e-06,0.0,0 STARLINK-3126,1 49444U 21104AN  23153.06322730 -.00000450  00000-0 -10186-4 0  9991,2 49444  53.2170  70.4967 0000995  99.7570 260.3534 15.08838780 87262,6917.884,95.438,540.437,539.061,0.0
49444.0,STARLINK-3126,PAYLOAD,2023-06-02 04:41:48,15.08845926,0.0001085,53.2174,69.9002,102.2792,257.8322,2.9845e-05,1.87e-06,0.0,0 STARLINK-3126,1 49444U 21104AN  23153.19570281  .00000187  00000-0  29845-4 0  9998,2 49444  53.2174  69.9002 0001085 102.2792 257.8322 15.08845926 87284,6917.862,95.437,540.478,538.977,0.0
49444.0,STARLINK-3126,PAYLOAD,2023-06-03 02:57:13,15.08834707,9.89e-05,53.2176,65.7379,99.1014,261.009,-1.1148e-06,-3.05e-06,0.0,0 STARLINK-3126,1 49444U 21104AN  23154.12307580 -.00000305  00000-0 -11148-5 0  9994,2 49444  53.2176  65.7379 0000989  99.1014 261.0090 15.08834707 87420,6917.897,95.438,540.446,539.077,0.0
49444.0,STARLINK-3126,PAYLOAD,2023-06-03 22:01:51,15.08838843,9.56e-05,53.2178,62.1693,104.9499,255.1599,1.7755e-05,-5e-08,0.0,0 STARLINK-3126,1 49444U 21104AN  23154.91795662 -.00000005  00000-0  17755-4 0  9998,2 49444  53.2178  62.1693 0000956 104.9499 255.1599 15.08838843 86475,6917.884,95.438,540.41,539.088,0.0
49444.0,STARLINK-3126,PAYLOAD,2023-06-04 02:48:00,15.0884548,0.0001005,53.2175,61.2775,108.4955,251.6146,7.9226e-05,9.74e-06,0.0,0 STARLINK-3126,1 49444U 21104AN  23155.11667126  .00000974  00000-0  79226-4 0  9999,2 49444  53.2175  61.2775 0001005 108.4955 251.6146 15.08845480 87571,6917.864,95.437,540.424,539.033,0.0
49444.0,STARLINK-3126,PAYLOAD,2023-06-04 12:20:19,15.08835641,0.0001029,53.2175,59.4935,107.018,253.0925,0.00015173,2.128e-05,0.0,0 STARLINK-3126,1 49444U 21104AN  23155.51411639  .00002128  00000-0  15173-3 0  9992,2 49444  53.2175  59.4935 0001029 107.0180 253.0925 15.08835641 86566,6917.894,95.438,540.471,539.047,0.0
49444.0,STARLINK-3126,PAYLOAD,2023-06-04 21:52:38,15.08839453,0.0001002,53.2175,57.709,107.3438,252.7664,0.00012164,1.649e-05,0.0,0 STARLINK-3126,1 49444U 21104AN  23155.91155559  .00001649  00000-0  12164-3 0  9996,2 49444  53.2175  57.7090 0001002 107.3438 252.7664 15.08839453 86627,6917.882,95.438,540.44,539.054,0.0
49444.0,STARLINK-3126,PAYLOAD,2023-06-05 02:38:47,15.08847734,0.0001024,53.2176,56.817,91.9163,268.1947,0.0001911,2.755e-05,0.0,0 STARLINK-3126,1 49444U 21104AN  23156.11026937  .00002755  00000-0  19110-3 0  9993,2 49444  53.2176  56.8170 0001024  91.9163 268.1947 15.08847734 87722,6917.857,95.437,540.43,539.013,0.0
49444.0,STARLINK-3126,PAYLOAD,2023-06-05 10:35:43,15.08836079,9.96e-05,53.2175,55.3303,89.7498,270.3608,7.4593e-05,8.99e-06,0.0,0 STARLINK-3126,1 49444U 21104AN  23156.44148018  .00000899  00000-0  74593-4 0  9998,2 49444  53.2175  55.3303 0000996  89.7498 270.3608 15.08836079 87770,6917.892,95.438,540.446,539.068,0.0
49444.0,STARLINK-3126,PAYLOAD,2023-06-05 12:11:07,15.08836185,0.0001029,53.2174,55.033,89.7478,270.3633,8.1261e-05,1.006e-05,0.0,0 STARLINK-3126,1 49444U 21104AN  23156.50772072  .00001006  00000-0  81261-4 0  9999,2 49444  53.2174  55.0330 0001029  89.7478 270.3633 15.08836185 86711,6917.892,95.438,540.469,539.045,0.0
49444.0,STARLINK-3126,PAYLOAD,2023-06-05 20:08:02,15.08838455,9.88e-05,53.2175,53.5454,97.3923,262.7181,9.0857e-06,-1.43e-06,0.0,0 STARLINK-3126,1 49444U 21104AN  23156.83892150 -.00000143  00000-0  90857-5 0  9999,2 49444  53.2175  53.5454 0000988  97.3923 262.7181 15.08838455 86765,6917.885,95.438,540.434,539.067,0.0
49444.0,STARLINK-3126,PAYLOAD,2023-06-06 12:01:53,15.08844678,9.35e-05,53.2174,50.5725,87.9922,272.1178,5.9583e-06,-1.93e-06,0.0,0 STARLINK-3126,1 49444U 21104AN  23157.50131678 -.00000193  00000-0  59583-5 0  9991,2 49444  53.2174  50.5725 0000935  87.9922 272.1178 15.08844678 86864,6917.866,95.437,540.378,539.084,0.0
49444.0,STARLINK-3126,PAYLOAD,2023-06-06 18:23:26,15.0884154,0.0001011,53.2178,49.3835,91.8073,268.3034,5.4007e-05,5.72e-06,0.0,0 STARLINK-3126,1 49444U 21104AN  23157.76627857  .00000572  00000-0  54007-4 0  9993,2 49444  53.2178  49.3835 0001011  91.8073 268.3034 15.08841540 86901,6917.876,95.437,540.44,539.041,0.0
49444.0,STARLINK-3126,PAYLOAD,2023-06-06 23:09:35,15.08844663,0.000103,53.2174,48.4912,86.0802,274.0308,8.8451e-05,1.12e-05,0.0,0 STARLINK-3126,1 49444U 21104AN  23157.96499570  .00001120  00000-0  88451-4 0  9994,2 49444  53.2174  48.4912 0001030  86.0802 274.0308 15.08844663 86930,6917.866,95.437,540.444,539.019,0.0
49444.0,STARLINK-3126,PAYLOAD,2023-06-07 16:38:50,15.0883842,0.000111,53.2177,45.2209,76.471,283.6406,0.00011497,1.542e-05,0.0,0 STARLINK-3126,1 49444U 21104AN  23158.69363918  .00001542  00000-0  11497-3 0  9994,2 49444  53.2177  45.2209 0001110  76.4710 283.6406 15.08838420 88118,6917.885,95.438,540.518,538.982,0.0
49444.0,STARLINK-3126,PAYLOAD,2023-06-07 21:24:59,15.08841728,0.0001145,53.2178,44.3287,76.1849,283.927,4.9926e-05,5.07e-06,0.0,0 STARLINK-3126,1 49444U 21104AN  23158.89235843  .00000507  00000-0  49926-4 0  9990,2 49444  53.2178  44.3287 0001145  76.1849 283.9270 15.08841728 87074,6917.875,95.437,540.532,538.948,0.0
49444.0,STARLINK-3126,PAYLOAD,2023-06-08 02:11:08,15.0884626,9.96e-05,53.218,43.4352,88.358,271.7526,9.7372e-05,1.263e-05,0.0,0 STARLINK-3126,1 49444U 21104AN  23159.09107370  .00001263  00000-0  97372-4 0  9994,2 49444  53.2180  43.4352 0000996  88.3580 271.7526 15.08846260 88177,6917.861,95.437,540.415,539.037,0.0
49444.0,STARLINK-3126,PAYLOAD,2023-06-08 22:51:09,15.08841882,0.000105,53.2181,39.5681,112.8279,247.2824,7.5753e-05,9.18e-06,0.0,0 STARLINK-3126,1 49444U 21104AN  23159.95219689  .00000918  00000-0  75753-4 0  9991,2 49444  53.2181  39.5681 0001050 112.8279 247.2824 15.08841882 88308,6917.875,95.437,540.466,539.013,0.0
49444.0,STARLINK-3126,PAYLOAD,2023-06-09 08:23:28,15.0883923,0.0001174,53.2183,37.7838,98.3689,261.7436,5.4029e-05,5.72e-06,0.0,0 STARLINK-3126,1 49444U 21104AN  23160.34963987  .00000572  00000-0  54029-4 0  9992,2 49444  53.2183  37.7838 0001174  98.3689 261.7436 15.08839230 87295,6917.883,95.438,540.56,538.936,0.0
49444.0,STARLINK-3126,PAYLOAD,2023-06-09 16:20:24,15.08835424,0.0001048,53.2177,36.2991,96.3599,263.7513,3.5052e-05,2.7e-06,0.0,0 STARLINK-3126,1 49444U 21104AN  23160.68084342  .00000270  00000-0  35052-4 0  9998,2 49444  53.2177  36.2991 0001048  96.3599 263.7513 15.08835424 88414,6917.894,95.438,540.484,539.034,0.0
